GALAXY 25 (G-25)        
1 24812C 97026A   23268.00000000  .00000215  00000-0  00000-0 0  2689
2 24812   4.8558  78.9502 0009191  51.3602  82.6551  0.99034895    12
GALAXY 25 (G-25)        
1 24812C 97026A   23271.00000000  .00000200  00000-0  00000-0 0  2711
2 24812   4.8620  78.8921 0008937  54.0293  69.6398  0.99036322    10
INTELSAT 5 (IS-5)   [PM]
1 24916C 97046A   23251.45461806  .00000035  00000-0  00000-0 0  2514
2 24916   8.1881  57.7530 0007924 159.9704  99.3643  1.00269963    15
INTELSAT 5 (IS-5)       
1 24916C 97046A   23268.00000000  .00000035  00000-0  00000-0 0  2686
2 24916   8.2197  57.6374 0002670 141.0875 331.0333  1.00265964    14
INTELSAT 5 (IS-5)       
1 24916C 97046A   23271.00000000  .00000035  00000-0  00000-0 0  2714
2 24916   8.2268  57.5996 0003105 153.9654 321.1438  1.00266466    17
GALAXY 11 (G-11)        
1 26038C 99071A   23264.00000000  .00000194  00000-0  00000-0 0  2641
2 26038   4.1741  82.3867 0005187 115.7299  22.4229  1.00036084    11
GALAXY 11 (G-11)        
1 26038C 99071A   23268.00000000  .00000205  00000-0  00000-0 0  2682
2 26038   4.1834  82.4212 0005681 122.0129  16.6763  1.00034135    14
GALAXY 11 (G-11)    [PM]
1 26038C 99071A   23271.70833333  .00000213  00000-0  00000-0 0  2719
2 26038   4.1901  82.3282 0007490 117.3380 276.9287  1.00042845    10
INTELSAT 9 (IS-9)       
1 26451C 00043A   23268.00000000 -.00000191  00000-0  00000-0 0  2687
2 26451   8.2048  57.8177 0005694 162.3980  93.3761  1.00271870    16
INTELSAT 9 (IS-9)   [PM]
1 26451C 00043A   23268.81393519 -.00000191  00000-0  00000-0 0  2686
2 26451   8.2063  57.7832 0003451 206.1391 343.4576  1.00275746    11
INTELSAT 9 (IS-9)       
1 26451C 00043A   23271.00000000 -.00000191  00000-0  00000-0 0  2715
2 26451   8.2109  57.7753 0006312 166.1084  92.6709  1.00270435    18
INTELSAT 1R (IS-1R)     
1 26608C 00072A   23264.00000000 -.00000046  00000-0  00000-0 0  2644
2 26608   5.6000  75.5100 0001472 191.9488 249.2955  1.00269477    10
INTELSAT 1R (IS-1R)     
1 26608C 00072A   23268.00000000 -.00000046  00000-0  00000-0 0  2682
2 26608   5.6069  75.5342 0001569 190.3350 254.8352  1.00269151    13
INTELSAT 10 (IS-10) [PM]
1 26766C 01019A   23265.61728009  .00000127  00000-0  00000-0 0  2655
2 26766   6.6762  69.2162 0004308 112.8294 219.2269  1.00269717    19
INTELSAT 10 (IS-10)     
1 26766C 01019A   23268.00000000  .00000127  00000-0  00000-0 0  2688
2 26766   6.6801  69.2164 0001888  76.2875  35.9004  1.00265898    19
INTELSAT 10 (IS-10)     
1 26766C 01019A   23271.00000000  .00000127  00000-0  00000-0 0  2716
2 26766   6.6864  69.1650 0001662  97.6183  17.5606  1.00266913    19
INTELSAT 901            
1 26824C 01024A   23268.00000000 -.00000107  00000-0  00000-0 0  2688
2 26824   0.0087 197.5279 0001022  23.6732 114.8941  1.00269652    17
INTELSAT 901            
1 26824C 01024A   23271.00000000 -.00000108  00000-0  00000-0 0  2717
2 26824   0.0056 200.2203 0001409  37.6629 101.1565  1.00269451    19
INTELSAT 902            
1 26900C 01039A   23268.00000000 -.00000192  00000-0  00000-0 0  2683
2 26900   3.5766  83.7734 0003567 136.8529  92.8481  1.00269620    12
INTELSAT 902            
1 26900C 01039A   23271.00000000 -.00000192  00000-0  00000-0 0  2711
2 26900   3.5820  83.7030 0003544 144.3626  88.3702  1.00272228    13
INTELSAT 902        [PM]
1 26900C 01039A   23275.99037037 -.00000192  00000-0  00000-0 0  2757
2 26900   3.5996  83.5900 0004034 152.2178  82.0732  1.00273645    14
INTELSAT 904        [PM]
1 27380C 02007A   23266.92092593 -.00000123  00000-0  00000-0 0  2661
2 27380   4.3989  80.8861 0002413 103.5883 120.0700  1.00273424    18
INTELSAT 904            
1 27380C 02007A   23268.00000000 -.00000123  00000-0  00000-0 0  2686
2 27380   4.4006  80.8914 0003088 111.7369 141.4577  1.00271604    14
INTELSAT 904            
1 27380C 02007A   23271.00000000 -.00000123  00000-0  00000-0 0  2714
2 27380   4.4063  80.8263 0003413 123.5953 132.6232  1.00270904    18
INTELSAT 905            
1 27438C 02027A   23268.00000000 -.00000094  00000-0  00000-0 0  2689
2 27438   4.2244  81.5735 0002919 114.9701 142.5499  1.00269969    12
INTELSAT 905        [PM]
1 27438C 02027A   23270.83281250 -.00000094  00000-0  00000-0 0  2704
2 27438   4.2436  21.3952 0003234 107.4566 152.8388  1.00270386    11
INTELSAT 905            
1 27438C 02027A   23271.00000000 -.00000094  00000-0  00000-0 0  2717
2 27438   4.2303  81.5092 0003145 119.9678 140.5619  1.00275314    17
GALAXY 3C (G-3C)        
1 27445C 02030A   23264.00000000 -.00000062  00000-0  00000-0 0  2648
2 27445   1.1438  89.4429 0002557 140.8268  34.5246  1.00272063    11
GALAXY 3C (G-3C)        
1 27445C 02030A   23268.00000000 -.00000062  00000-0  00000-0 0  2686
2 27445   1.1553  89.6743 0002574 140.5319  38.5327  1.00270484    12
INTELSAT 906        [PM]
1 27513C 02041A   23266.78732639  .00000105  00000-0  00000-0 0  2662
2 27513   3.2468  85.1048 0003290 115.6147 149.2588  1.00270198    14
INTELSAT 906            
1 27513C 02041A   23268.00000000  .00000105  00000-0  00000-0 0  2681
2 27513   3.2490  85.1061 0003635 108.3479 234.2753  1.00270473    19
INTELSAT 906            
1 27513C 02041A   23271.00000000  .00000105  00000-0  00000-0 0  2719
2 27513   3.2545  85.0392 0003922 118.0590 227.5778  1.00271148    19
GALAXY 12 (G-12)    [PM]
1 27715C 03013B   23257.64699074  .00000218  00000-0  00000-0 0  2571
2 27715   4.4079  80.6926 0006310 148.4948 202.9354  0.99254548    19
GALAXY 12 (G-12)        
1 27715C 03013B   23268.00000000  .00000030  00000-0  00000-0 0  2682
2 27715   4.4346  80.6090 0003895 156.0550 294.5295  0.99234161    17
GALAXY 12 (G-12)        
1 27715C 03013B   23271.00000000 -.00000068  00000-0  00000-0 0  2712
2 27715   4.4402  80.5443 0004520 159.2098 283.1828  0.99234650    18
GALAXY 23 (G-23)        
1 27854C 03034A   23268.00000000  .00000103  00000-0  00000-0 0  2680
2 27854   0.6134  93.0116 0002843  80.2994  69.3573  1.00270483    10
GALAXY 23 (G-23)        
1 27854C 03034A   23271.00000000  .00000103  00000-0  00000-0 0  2718
2 27854   0.6188  92.8763 0002887  93.5412  59.2086  1.00271218    18
GALAXY 23 (G-23)    [PM]
1 27854C 03034A   23273.58643519  .00000103  00000-0  00000-0 0  2733
2 27854   0.6266  92.4769 0002903 101.3705 265.4496  1.00270663    18
GALAXY 13               
1 27954C 03044A   23268.00000000  .00000121  00000-0  00000-0 0  2682
2 27954   0.0088 179.1479 0000702 264.0010 153.4171  1.00270826    14
GALAXY 13               
1 27954C 03044A   23271.00000000  .00000138  00000-0  00000-0 0  2718
2 27954   0.0263 232.7280 0000162 225.9908 140.8055  1.00270918    10
GALAXY 13           [PM]
1 27954C 03044A   23271.73049769  .00000138  00000-0  00000-0 0  2713
2 27954   0.0230 231.3086 0000067  39.7325 232.1847  1.00272082    19
INTELSAT 10-02          
1 28358C 04022A   23264.00000000  .00000078  00000-0  00000-0 0  2641
2 28358   0.0316 274.0855 0000848 253.5654 190.9995  1.00270890    19
INTELSAT 10-02          
1 28358C 04022A   23268.00000000  .00000079  00000-0  00000-0 0  2680
2 28358   0.0211 246.4440 0000910 294.0580 182.0909  1.00269750    14
GALAXY 28 (G-28)        
1 28702C 05022A   23264.00000000 -.00000096  00000-0  00000-0 0  2646
2 28702   0.7063  90.6268 0004428 146.6949  33.3172  1.00271876    17
GALAXY 28 (G-28)    [PM]
1 28702C 05022A   23267.03854167 -.00000096  00000-0  00000-0 0  2676
2 28702   0.7155  90.9461 0004506 145.9163  50.6413  1.00272168    19
GALAXY 28 (G-28)        
1 28702C 05022A   23268.00000000 -.00000096  00000-0  00000-0 0  2684
2 28702   0.7174  91.0116 0004617 146.2310  37.3376  1.00271484    10
GALAXY 14 (G-14)        
1 28790C 05030A   23268.00000000  .00000245  00000-0  00000-0 0  2685
2 28790   2.4405  87.0468 0001689 102.0953 207.3316  1.00271086    18
GALAXY 14 (G-14)        
1 28790C 05030A   23271.00000000  .00000245  00000-0  00000-0 0  2713
2 28790   2.4459  86.9793 0001959 119.6755 192.7831  1.00272457    12
GALAXY 14 (G-14)    [PM]
1 28790C 05030A   23273.13819444  .00000245  00000-0  00000-0 0  2731
2 28790   2.4526  86.8718 0001872 111.1797 253.2540  1.00268664    15
GALAXY 16 (G-16)        
1 29236C 06023A   23268.00000000 -.00000037  00000-0  00000-0 0  2684
2 29236   0.0439 252.8696 0002913 289.9630  81.7445  1.00269938    18
GALAXY 16 (G-16)    [PM]
1 29236C 06023A   23270.99599537 -.00000037  00000-0  00000-0 0  2706
2 29236   0.0372 243.8883 0002750 294.6197  87.5893  1.00270448    11
GALAXY 16 (G-16)        
1 29236C 06023A   23271.00000000 -.00000037  00000-0  00000-0 0  2712
2 29236   0.0379 245.7756 0002936 302.0779  79.6804  1.00276369    16
GALAXY 16 (G-16)    [PM]
1 29236C 06023A   23274.00854167 -.00000037  00000-0  00000-0 0  2749
2 29236   0.0332 251.2283 0002772 302.0824  80.2646  1.00270957    10
GALAXY 17 (G-17)        
1 31307C 07016B   23268.00000000 -.00000116  00000-0  00000-0 0  2687
2 31307   0.4324  93.1163 0002631  96.8785  88.5830  1.00269319    11
GALAXY 17 (G-17)    [PM]
1 31307C 07016B   23268.97555556 -.00000116  00000-0  00000-0 0  2684
2 31307   0.4339  93.1490 0002657  96.7481  80.8366  1.00271473    13
GALAXY 17 (G-17)    [PM]
1 31307C 07016B   23269.98577546 -.00000116  00000-0  00000-0 0  2690
2 31307   0.4354  93.0896 0002756 101.5288  80.7925  1.00271438    10
GALAXY 17 (G-17)        
1 31307C 07016B   23271.00000000 -.00000116  00000-0  00000-0 0  2715
2 31307   0.4377  92.8950 0002801 107.4079  81.2284  1.00271298    15
INTELSAT 11 (IS-11)     
1 32253C 07044B   23268.00000000 -.00000178  00000-0  00000-0 0  2687
2 32253   0.9710  91.1623 0003519 103.5958 125.8249  1.00270004    11
INTELSAT 11 (IS-11)     
1 32253C 07044B   23271.00000000 -.00000178  00000-0  00000-0 0  2715
2 32253   0.9764  91.0340 0003665 110.7033 121.7947  1.00271945    16
